norad_id,name,regime,epoch,line1,line2,inclination,eccentricity,mean_motion,raan,arg_pericenter,mean_anomaly
25049,SIRIUS 2 (GE-1E),GEO,25300.35895551,1 25049U 97071A   25300.35895551  .00000094  00000-0  00000-0 0  8964,2 25049  11.6144  35.7494 0004557 172.9782 179.0771  0.99402969101808,11.6144,0.0004557,0.99402969,35.7494,172.9782,179.0771
25049,SIRIUS 2 (GE-1E),GEO,25301.33413641,1 25049U 97071A   25301.33413641  .00000092  00000-0  00000-0 0  8989,2 25049  11.6161  35.7422 0004533 173.7023 167.3348  0.99403342101816,11.6161,0.0004533,0.99403342,35.7422,173.7023,167.3348
25049,SIRIUS 2 (GE-1E),GEO,25302.42454244,1 25049U 97071A   25302.42454244  .00000086  00000-0  00000+0 0  7198,2 25049  11.6180  35.7342 0004506 174.5245 196.7310  0.99403788101834,11.618,0.0004506,0.99403788,35.7342,174.5245,196.731
25049,SIRIUS 2 (GE-1E),GEO,25302.42454245,1 25049U 97071A   25302.42454245  .00000086  00000-0  00000-0 0  9013,2 25049  11.6180  35.7342 0004506 174.5245 196.7310  0.99403788101834,11.618,0.0004506,0.99403788,35.7342,174.5245,196.731
25049,SIRIUS 2 (GE-1E),GEO,25303.23702222,1 25049U 97071A   25303.23702222  .00000080  00000-0  00000-0 0  9029,2 25049  11.6194  35.7282 0004494 175.0366 126.9786  0.99404132101834,11.6194,0.0004494,0.99404132,35.7282,175.0366,126.9786
25049,SIRIUS 2 (GE-1E),GEO,25303.44989904,1 25049U 97071A   25303.44989904  .00000079  00000-0  00000-0 0  9057,2 25049  11.6198  35.7266 0004482 175.2614 202.9361  0.99404242101842,11.6198,0.0004482,0.99404242,35.7266,175.2614,202.9361
25049,SIRIUS 2 (GE-1E),GEO,25304.47865102,1 25049U 97071A   25304.47865102  .00000069  00000-0  00000+0 0  7218,2 25049  11.6216  35.7190 0004460 175.8709 210.4836  0.99404669101851,11.6216,0.000446,0.99404669,35.719,175.8709,210.4836
25049,SIRIUS 2 (GE-1E),GEO,25305.48289648,1 25049U 97071A   25305.48289648  .00000057  00000-0  00000-0 0  9103,2 25049  11.6233  35.7116 0004439 176.5101 209.2329  0.99405088101868,11.6233,0.0004439,0.99405088,35.7116,176.5101,209.2329
25049,SIRIUS 2 (GE-1E),GEO,25306.50209970,1 25049U 97071A   25306.50209970  .00000042  00000-0  00000+0 0  7232,2 25049  11.6250  35.7040 0004417 177.2743 213.2132  0.99405548101878,11.625,0.0004417,0.99405548,35.704,177.2743,213.2132
25049,SIRIUS 2 (GE-1E),GEO,25307.47678525,1 25049U 97071A   25307.47678525  .00000026  00000-0  00000-0 0  9162,2 25049  11.6266  35.6968 0004395 178.3276 200.9745  0.99405985101880,11.6266,0.0004395,0.99405985,35.6968,178.3276,200.9745
25049,SIRIUS 2 (GE-1E),GEO,25308.43221975,1 25049U 97071A   25308.43221975  .00000007  00000-0  00000-0 0    16,2 25049  11.6282  35.6896 0004381 178.9758 182.2532  0.99406415101890,11.6282,0.0004381,0.99406415,35.6896,178.9758,182.2532
25049,SIRIUS 2 (GE-1E),GEO,25309.48705552,1 25049U 97071A   25309.48705552 -.00000016  00000-0  00000-0 0  9201,2 25049  11.6300  35.6817 0004370 179.6823 199.0473  0.99406837101903,11.63,0.000437,0.99406837,35.6817,179.6823,199.0473
25049,SIRIUS 2 (GE-1E),GEO,25310.47892066,1 25049U 97071A   25310.47892066 -.00000039  00000-0  00000-0 0  9226,2 25049  11.6316  35.6741 0004362 180.3459 193.3504  0.99407224101915,11.6316,0.0004362,0.99407224,35.6741,180.3459,193.3504
25049,SIRIUS 2 (GE-1E),GEO,25311.51224433,1 25049U 97071A   25311.51224433 -.00000065  00000-0  00000-0 0  9251,2 25049  11.6333  35.6663 0004357 181.0328 202.4688  0.99407604101922,11.6333,0.0004357,0.99407604,35.6663,181.0328,202.4688
25049,SIRIUS 2 (GE-1E),GEO,25312.50184851,1 25049U 97071A   25312.50184851 -.00000090  00000-0  00000+0 0  7367,2 25049  11.6349  35.6587 0004354 181.8171 195.8451  0.99407945101937,11.6349,0.0004354,0.99407945,35.6587,181.8171,195.8451
25049,SIRIUS 2 (GE-1E),GEO,25314.49304685,1 25049U 97071A   25314.49304685 -.00000139  00000-0  00000-0 0  9318,2 25049  11.6383  35.6435 0004355 183.8591 186.4180  0.99408516101958,11.6383,0.0004355,0.99408516,35.6435,183.8591,186.418
25049,SIRIUS 2 (GE-1E),GEO,25315.49134703,1 25049U 97071A   25315.49134703 -.00000161  00000-0  00000-0 0  9327,2 25049  11.6400  35.6359 0004359 184.7219 182.8308  0.99408744101960,11.64,0.0004359,0.99408744,35.6359,184.7219,182.8308
25049,SIRIUS 2 (GE-1E),GEO,25316.46850297,1 25049U 97071A   25316.46850297 -.00000182  00000-0  00000-0 0  9332,2 25049  11.6416  35.6284 0004365 185.2925 171.9690  0.99408917101966,11.6416,0.0004365,0.99408917,35.6284,185.2925,171.969
25049,SIRIUS 2 (GE-1E),GEO,25317.48787191,1 25049U 97071A   25317.48787191 -.00000202  00000-0  00000+0 0  7450,2 25049  11.6434  35.6208 0004370 186.2231 175.8558  0.99409070101988,11.6434,0.000437,0.9940907,35.6208,186.2231,175.8558
25049,SIRIUS 2 (GE-1E),GEO,25318.48615330,1 25049U 97071A   25318.48615330 -.00000220  00000-0  00000+0 0  7467,2 25049  11.6451  35.6134 0004374 187.1689 172.1805  0.99409163101984,11.6451,0.0004374,0.99409163,35.6134,187.1689,172.1805
25049,SIRIUS 2 (GE-1E),GEO,25319.48442204,1 25049U 97071A   25319.48442204 -.00000237  00000-0  00000-0 0  9377,2 25049  11.6468  35.6060 0004376 188.1123 168.5019  0.99409171101992,11.6468,0.0004376,0.99409171,35.606,188.1123,168.5019
25049,SIRIUS 2 (GE-1E),GEO,25320.49171972,1 25049U 97071A   25320.49171972 -.00000253  00000-0  00000+0 0  7499,2 25049  11.6486  35.5986 0004373 188.9780 168.1336  0.99409159102009,11.6486,0.0004373,0.99409159,35.5986,188.978,168.1336
25049,SIRIUS 2 (GE-1E),GEO,25320.49171973,1 25049U 97071A   25320.49171973 -.00000253  00000-0  00000-0 0  9381,2 25049  11.6486  35.5986 0004373 188.9780 168.1336  0.99409159102009,11.6486,0.0004373,0.99409159,35.5986,188.978,168.1336
25049,SIRIUS 2 (GE-1E),GEO,25321.55213171,1 25049U 97071A   25321.55213171 -.00000268  00000-0  00000+0 0  7503,2 25049  11.6504  35.5909 0004368 190.0480 186.5682  0.99409059102029,11.6504,0.0004368,0.99409059,35.5909,190.048,186.5682
25049,SIRIUS 2 (GE-1E),GEO,25321.55213172,1 25049U 97071A   25321.55213172 -.00000268  00000-0  00000-0 0  9406,2 25049  11.6504  35.5909 0004368 190.0480 186.5682  0.99409059102029,11.6504,0.0004368,0.99409059,35.5909,190.048,186.5682
25049,SIRIUS 2 (GE-1E),GEO,25322.52544501,1 25049U 97071A   25322.52544501 -.00000280  00000-0  00000+0 0  7510,2 25049  11.6521  35.5838 0004368 190.6351 174.3152  0.99408939102036,11.6521,0.0004368,0.99408939,35.5838,190.6351,174.3152
25049,SIRIUS 2 (GE-1E),GEO,25322.52544502,1 25049U 97071A   25322.52544502 -.00000280  00000-0  00000-0 0  9413,2 25049  11.6521  35.5838 0004368 190.6351 174.3152  0.99408939102036,11.6521,0.0004368,0.99408939,35.5838,190.6351,174.3152
25049,SIRIUS 2 (GE-1E),GEO,25323.55808419,1 25049U 97071A   25323.55808419 -.00000291  00000-0  00000+0 0  7528,2 25049  11.6539  35.5762 0004358 191.4711 183.0441  0.99408751102040,11.6539,0.0004358,0.99408751,35.5762,191.4711,183.0441
25049,SIRIUS 2 (GE-1E),GEO,25324.50322567,1 25049U 97071A   25324.50322567 -.00000300  00000-0  00000+0 0  7553,2 25049  11.6555  35.5693 0004345 192.3354 160.4300  0.99408531102049,11.6555,0.0004345,0.99408531,35.5693,192.3354,160.43
25049,SIRIUS 2 (GE-1E),GEO,25324.50322568,1 25049U 97071A   25324.50322568 -.00000300  00000-0  00000-0 0  9445,2 25049  11.6555  35.5693 0004345 192.3354 160.4300  0.99408531102049,11.6555,0.0004345,0.99408531,35.5693,192.3354,160.43
25049,SIRIUS 2 (GE-1E),GEO,25325.54494772,1 25049U 97071A   25325.54494772 -.00000307  00000-0  00000+0 0  7586,2 25049  11.6573  35.5616 0004329 193.3028 172.2778  0.99408276102063,11.6573,0.0004329,0.99408276,35.5616,193.3028,172.2778
25049,SIRIUS 2 (GE-1E),GEO,25326.54309405,1 25049U 97071A   25326.54309405 -.00000311  00000-0  00000+0 0  7591,2 25049  11.6591  35.5542 0004311 194.1026 168.6955  0.99407944102077,11.6591,0.0004311,0.99407944,35.5542,194.1026,168.6955
25049,SIRIUS 2 (GE-1E),GEO,25326.54309406,1 25049U 97071A   25326.54309406 -.00000311  00000-0  00000-0 0  9461,2 25049  11.6591  35.5542 0004311 194.1026 168.6955  0.99407944102077,11.6591,0.0004311,0.99407944,35.5542,194.1026,168.6955
25049,SIRIUS 2 (GE-1E),GEO,25327.54126279,1 25049U 97071A   25327.54126279 -.00000312  00000-0  00000+0 0  7601,2 25049  11.6608  35.5468 0004293 195.0111 165.0111  0.99407569102075,11.6608,0.0004293,0.99407569,35.5468,195.0111,165.0111
25049,SIRIUS 2 (GE-1E),GEO,25327.54126280,1 25049U 97071A   25327.54126280 -.00000312  00000-0  00000-0 0  9482,2 25049  11.6608  35.5468 0004293 195.0111 165.0111  0.99407569102075,11.6608,0.0004293,0.99407569,35.5468,195.0111,165.0111
25049,SIRIUS 2 (GE-1E),GEO,25328.53950648,1 25049U 97071A   25328.53950648 -.00000310  00000-0  00000+0 0  7615,2 25049  11.6625  35.5394 0004268 196.0204 161.2517  0.99407164102088,11.6625,0.0004268,0.99407164,35.5394,196.0204,161.2517
25049,SIRIUS 2 (GE-1E),GEO,25328.53950649,1 25049U 97071A   25328.53950649 -.00000310  00000-0  00000-0 0  9495,2 25049  11.6625  35.5394 0004268 196.0204 161.2517  0.99407164102088,11.6625,0.0004268,0.99407164,35.5394,196.0204,161.2517
25049,SIRIUS 2 (GE-1E),GEO,25329.53766266,1 25049U 97071A   25329.53766266 -.00000306  00000-0  00000+0 0  7623,2 25049  11.6643  35.5319 0004240 196.8266 157.6644  0.99406765102098,11.6643,0.000424,0.99406765,35.5319,196.8266,157.6644
25049,SIRIUS 2 (GE-1E),GEO,25329.53766267,1 25049U 97071A   25329.53766267 -.00000306  00000-0  00000-0 0  9504,2 25049  11.6643  35.5319 0004240 196.8266 157.6644  0.99406765102098,11.6643,0.000424,0.99406765,35.5319,196.8266,157.6644
25049,SIRIUS 2 (GE-1E),GEO,25330.03677655,1 25049U 97071A   25330.03677655 -.00000302  00000-0  00000+0 0  7630,2 25049  11.6651  35.5282 0004227 198.2145 334.8947  0.99406481102105,11.6651,0.0004227,0.99406481,35.5282,198.2145,334.8947
25049,SIRIUS 2 (GE-1E),GEO,25330.03677656,1 25049U 97071A   25330.03677656 -.00000302  00000-0  00000-0 0  9511,2 25049  11.6651  35.5282 0004227 198.2145 334.8947  0.99406481102105,11.6651,0.0004227,0.99406481,35.5282,198.2145,334.8947
